format  = 'OEF2.0'       ! file format
rectype = 'ML'           ! record type (1L/ML)
refsys  = ECLM J2000     ! default reference system
END_OF_HEADER
2001VB
! Keplerian elements: a, e, i, long. node, arg. peric., mean anomaly
 KEP   2.4146897921677808E+00  8.9716885876609342E-01   7.5661700725370 290.1939775302736 240.0971251355842  1.4686994281623794E+02
 MJD     61000.000000000 TDT
 MAG  18.496  0.150
! Non-gravitational parameters: model used, number of model parameters, dimension
 LSP   0  0    6
! PERIHELION   2.4830530705447759E-01
! APHELION   4.5810742772810844E+00
! ANODE  -1.6523576483708891E-01
! DNODE  -6.5831536185235839E-01
! MOID   1.5902297773201152E-02
! PERIOD   1.3705359951602338E+03
! PHA T
! VINFTY    32.9672071591305
! U_PAR 9.0
! ORB_TYPE Apollo
! RMS    1.94739E-01   8.64633E-03   7.26732E-01   2.27912E+01   2.21030E+01   1.99342E+02
 COV   3.792333809846272E-02 -1.683778750148863E-03  1.415231543114099E-01
 COV   4.438332914362491E+00 -4.304322699918984E+00 -3.881971678142623E+01
 COV   7.475900387048353E-05 -6.283563384064710E-03 -1.970599314798757E-01
 COV   1.911099404921050E-01  1.723577550572172E+00  5.281396226367095E-01
 COV   1.656306438816622E+01 -1.606296233838036E+01 -1.448682802616657E+02
 COV   5.194374336947863E+02 -5.037536333609302E+02 -4.543240002281083E+03
 COV   4.885433870267295E+02  4.406062242255940E+03  3.973728280678416E+04
 COR   1.000000000000000E+00 -9.999999823231321E-01  9.999996438582087E-01
 COR   9.999999400904714E-01 -9.999999423295086E-01 -9.999999999980886E-01
 COR   1.000000000000000E+00 -9.999997050479340E-01 -9.999998902828525E-01
 COR   9.999998958638207E-01  9.999999821055970E-01  1.000000000000000E+00
 COR   9.999992923107719E-01 -9.999993004745981E-01 -9.999996445339575E-01
 COR   1.000000000000000E+00 -9.999999998396475E-01 -9.999999398084128E-01
 COR   1.000000000000000E+00  9.999999420237176E-01  1.000000000000000E+00
